NORAD_CAT_ID,OBJECT_NAME,OBJECT_TYPE,EPOCH,MEAN_MOTION,ECCENTRICITY,INCLINATION,RA_OF_ASC_NODE,ARG_OF_PERICENTER,MEAN_ANOMALY,BSTAR,MEAN_MOTION_DOT,MEAN_MOTION_DDOT,TLE_LINE0,TLE_LINE1,TLE_LINE2,SEMIMAJOR_AXIS,PERIOD,APOGEE,PERIGEE,DECAYED
54010.0,STARLINK-5127,PAYLOAD,2024-01-08 14:44:54,15.08839403,0.0001388,53.2176,154.9706,94.1017,266.0134,3.9074e-05,3.34e-06,0.0,0 STARLINK-5127,1 54010U 22125AY  24008.61451707  .00000334  00000-0  39074-4 0  9994,2 54010  53.2176 154.9706 0001388  94.1017 266.0134 15.08839403 70189,6917.882,95.438,540.707,538.787,0.0
54010.0,STARLINK-5127,PAYLOAD,2024-01-08 16:20:17,15.08840284,0.0001398,53.2177,154.6733,94.7133,265.4019,4.58e-05,4.41e-06,0.0,0 STARLINK-5127,1 54010U 22125AY  24008.68075631  .00000441  00000-0  45800-4 0  9992,2 54010  53.2177 154.6733 0001398  94.7133 265.4019 15.08840284 70198,6917.88,95.438,540.712,538.777,0.0
54010.0,STARLINK-5127,PAYLOAD,2024-01-09 09:49:32,15.08837518,0.0001429,53.2178,151.4023,100.2347,259.8807,3.7402e-05,3.07e-06,0.0,0 STARLINK-5127,1 54010U 22125AY  24009.40939868  .00000307  00000-0  37402-4 0  9994,2 54010  53.2178 151.4023 0001429 100.2347 259.8807 15.08837518 70357,6917.888,95.438,540.742,538.764,0.0
54010.0,STARLINK-5127,PAYLOAD,2024-01-09 14:35:41,15.0883906,0.0001442,53.2179,150.5104,101.9588,258.1566,4.9916e-05,5.07e-06,0.0,0 STARLINK-5127,1 54010U 22125AY  24009.60811766  .00000507  00000-0  49916-4 0  9997,2 54010  53.2179 150.5104 0001442 101.9588 258.1566 15.08839060 70334,6917.883,95.438,540.746,538.751,0.0
54010.0,STARLINK-5127,PAYLOAD,2024-01-09 19:21:50,15.08842406,0.0001372,53.2174,149.6164,97.8459,262.2689,5.8902e-05,6.5e-06,0.0,0 STARLINK-5127,1 54010U 22125AY  24009.80683520  .00000650  00000-0  58902-4 0  9998,2 54010  53.2174 149.6164 0001372  97.8459 262.2689 15.08842406 70369,6917.873,95.437,540.687,538.789,0.0
54010.0,STARLINK-5127,PAYLOAD,2024-01-10 08:04:55,15.08840376,0.0001411,53.218,147.2362,89.1517,270.9637,5.3622e-05,5.66e-06,0.0,0 STARLINK-5127,1 54010U 22125AY  24010.33675702  .00000566  00000-0  53622-4 0  9991,2 54010  53.2180 147.2362 0001411  89.1517 270.9637 15.08840376 70445,6917.879,95.438,540.72,538.768,0.0
54010.0,STARLINK-5127,PAYLOAD,2024-01-10 19:12:38,15.08838894,0.0001424,53.2179,145.1537,88.328,271.7875,4.3018e-05,3.97e-06,0.0,0 STARLINK-5127,1 54010U 22125AY  24010.80044004  .00000397  00000-0  43018-4 0  9998,2 54010  53.2179 145.1537 0001424  88.3280 271.7875 15.08838894 70564,6917.884,95.438,540.734,538.764,0.0
54010.0,STARLINK-5127,PAYLOAD,2024-01-11 14:17:15,15.08857182,0.0001509,53.2173,141.5847,104.3483,255.7677,-0.00010445,-1.951e-05,0.0,0 STARLINK-5127,1 54010U 22125AY  24011.59531395 -.00001951  00000-0 -10445-3 0  9995,2 54010  53.2173 141.5847 0001509 104.3483 255.7677 15.08857182 70631,6917.828,95.436,540.737,538.649,0.0
54010.0,STARLINK-5127,PAYLOAD,2024-01-11 19:03:24,15.08847298,0.0001404,53.2175,140.6923,92.1642,267.9511,9.0662e-05,1.156e-05,0.0,0 STARLINK-5127,1 54010U 22125AY  24011.79403401  .00001156  00000-0  90662-4 0  9998,2 54010  53.2175 140.6923 0001404  92.1642 267.9511 15.08847298 70665,6917.858,95.437,540.694,538.752,0.0
54010.0,STARLINK-5127,PAYLOAD,2024-01-12 14:08:02,15.08840445,0.0001522,53.2171,137.1208,120.3634,239.7509,-4.4108e-05,-9.9e-06,0.0,0 STARLINK-5127,1 54010U 22125AY  24012.58892312 -.00000990  00000-0 -44108-4 0  9990,2 54010  53.2171 137.1208 0001522 120.3634 239.7509 15.08840445 70788,6917.879,95.438,540.797,538.691,0.0
54010.0,STARLINK-5127,PAYLOAD,2024-01-13 12:23:26,15.08844294,0.0001633,53.2171,132.9554,115.9171,244.199,6.3467e-06,-1.87e-06,0.0,0 STARLINK-5127,1 54010U 22125AY  24013.51628118 -.00000187  00000-0  63467-5 0  9992,2 54010  53.2171 132.9554 0001633 115.9171 244.1990 15.08844294 70920,6917.867,95.437,540.862,538.603,0.0
54010.0,STARLINK-5127,PAYLOAD,2024-01-13 17:09:35,15.08849445,0.0001508,53.2176,132.0668,54.5523,305.561,0.00011427,1.532e-05,0.0,0 STARLINK-5127,1 54010U 22125AY  24013.71499863  .00001532  00000-0  11427-3 0  9998,2 54010  53.2176 132.0668 0001508  54.5523 305.5610 15.08849445 71006,6917.852,95.437,540.76,538.673,0.0
54010.0,STARLINK-5127,PAYLOAD,2024-01-14 12:14:14,15.08840313,0.0001298,53.2161,128.5085,65.5732,294.5396,8.0619e-05,9.95e-06,0.0,0 STARLINK-5127,1 54010U 22125AY  24014.50988673  .00000995  00000-0  80619-4 0  9990,2 54010  53.2161 128.5085 0001298  65.5732 294.5396 15.08840313 71129,6917.879,95.438,540.642,538.846,0.0
54010.0,STARLINK-5127,PAYLOAD,2024-01-14 13:49:36,15.08851349,0.0001454,53.2173,128.2026,86.9812,273.1346,0.00021022,3.06e-05,0.0,0 STARLINK-5127,1 54010U 22125AY  24014.57611659  .00003060  00000-0  21022-3 0  9992,2 54010  53.2173 128.2026 0001454  86.9812 273.1346 15.08851349 71088,6917.846,95.437,540.717,538.705,0.0
54010.0,STARLINK-5127,PAYLOAD,2024-01-15 12:05:00,15.08851723,0.0001281,53.2163,124.0464,72.3637,287.7495,-3.3058e-06,-3.41e-06,0.0,0 STARLINK-5127,1 54010U 22125AY  24015.50348028 -.00000341  00000-0 -33058-5 0  9998,2 54010  53.2163 124.0464 0001281  72.3637 287.7495 15.08851723 71272,6917.845,95.437,540.596,538.823,0.0
54010.0,STARLINK-5127,PAYLOAD,2024-01-15 13:40:22,15.0886207,0.0001394,53.2158,123.7444,108.956,251.1583,0.00011273,1.508e-05,0.0,0 STARLINK-5127,1 54010U 22125AY  24015.56970887  .00001508  00000-0  11273-3 0  9995,2 54010  53.2158 123.7444 0001394 108.9560 251.1583 15.08862070 71232,6917.813,95.436,540.642,538.714,0.0
54010.0,STARLINK-5127,PAYLOAD,2024-01-16 11:55:47,15.08845509,0.0001517,53.2175,119.5806,103.3498,256.7664,-1.8049e-05,-5.75e-06,0.0,0 STARLINK-5127,1 54010U 22125AY  24016.49708123 -.00000575  00000-0 -18049-4 0  9994,2 54010  53.2175 119.5806 0001517 103.3498 256.7664 15.08845509 71422,6917.864,95.437,540.778,538.679,0.0
54010.0,STARLINK-5127,PAYLOAD,2024-01-16 16:41:57,15.08840619,0.0001462,53.2172,118.6899,92.7853,267.3306,-3.901e-05,-9.09e-06,0.0,0 STARLINK-5127,1 54010U 22125AY  24016.69580482 -.00000909  00000-0 -39010-4 0  9994,2 54010  53.2172 118.6899 0001462  92.7853 267.3306 15.08840619 71402,6917.878,95.438,540.755,538.732,0.0
54010.0,STARLINK-5127,PAYLOAD,2024-01-17 11:46:35,15.08843956,0.0001562,53.2157,115.1222,110.4345,249.6815,-3.6088e-05,-8.62e-06,0.0,0 STARLINK-5127,1 54010U 22125AY  24017.49068660 -.00000862  00000-0 -36088-4 0  9992,2 54010  53.2157 115.1222 0001562 110.4345 249.6815 15.08843956 71575,6917.868,95.437,540.814,538.653,0.0
54010.0,STARLINK-5127,PAYLOAD,2024-01-17 13:21:58,15.08849754,0.000143,53.2163,114.8249,104.1523,255.9628,1.5111e-05,-4.7e-07,0.0,0 STARLINK-5127,1 54010U 22125AY  24017.55692208 -.00000047  00000-0  15111-4 0  9998,2 54010  53.2163 114.8249 0001430 104.1523 255.9628 15.08849754 71539,6917.851,95.437,540.705,538.726,0.0
54010.0,STARLINK-5127,PAYLOAD,2024-01-18 11:37:22,15.08834583,0.0001602,53.2169,110.6631,90.8999,269.2177,0.00017732,2.535e-05,0.0,0 STARLINK-5127,1 54010U 22125AY  24018.48429220  .00002535  00000-0  17732-3 0  9996,2 54010  53.2169 110.6631 0001602  90.8999 269.2177 15.08834583 71725,6917.897,95.438,540.87,538.654,0.0
54010.0,STARLINK-5127,PAYLOAD,2024-01-19 13:03:32,15.08852246,0.0001482,53.217,105.9051,88.6621,271.4541,0.00013157,1.807e-05,0.0,0 STARLINK-5127,1 54010U 22125AY  24019.54412670  .00001807  00000-0  13157-3 0  9993,2 54010  53.2170 105.9051 0001482  88.6621 271.4541 15.08852246 71831,6917.843,95.437,540.733,538.683,0.0
54010.0,STARLINK-5127,PAYLOAD,2024-01-20 11:18:57,15.08832624,0.0001004,53.2172,101.742,74.6715,285.4388,-2.6346e-05,-7.07e-06,0.0,0 STARLINK-5127,1 54010U 22125AY  24020.47150252 -.00000707  00000-0 -26346-4 0  9997,2 54010  53.2172 101.7420 0001004  74.6715 285.4388 15.08832624 72020,6917.903,95.438,540.462,539.073,0.0
54010.0,STARLINK-5127,PAYLOAD,2024-01-20 14:29:44,15.08831006,0.0001007,53.2174,101.1476,104.0162,256.0942,-4.2832e-05,-9.69e-06,0.0,0 STARLINK-5127,1 54010U 22125AY  24020.60398338 -.00000969  00000-0 -42832-4 0  9999,2 54010  53.2174 101.1476 0001007 104.0162 256.0942 15.08831006 71992,6917.908,95.438,540.47,539.076,0.0
54010.0,STARLINK-5127,PAYLOAD,2024-01-21 11:09:43,15.08849768,0.0001262,53.2156,97.2861,84.2429,275.8707,5.5184e-05,5.91e-06,0.0,0 STARLINK-5127,1 54010U 22125AY  24021.46509204  .00000591  00000-0  55184-4 0  9993,2 54010  53.2156  97.2861 0001262  84.2429 275.8707 15.08849768 72176,6917.851,95.437,540.589,538.842,0.0
54010.0,STARLINK-5127,PAYLOAD,2024-01-21 12:45:06,15.08850706,0.0001274,53.2157,96.988,85.7558,274.358,6.717e-05,7.82e-06,0.0,0 STARLINK-5127,1 54010U 22125AY  24021.53133066  .00000782  00000-0  67170-4 0  9990,2 54010  53.2157  96.9880 0001274  85.7558 274.3580 15.08850706 72139,6917.848,95.437,540.594,538.831,0.0
54010.0,STARLINK-5127,PAYLOAD,2024-01-22 11:00:31,15.08839551,0.0001284,53.2191,92.8204,91.2021,268.9119,0.00017419,2.485e-05,0.0,0 STARLINK-5127,1 54010U 22125AY  24022.45869402  .00002485  00000-0  17419-3 0  9994,2 54010  53.2191  92.8204 0001284  91.2021 268.9119 15.08839551 72323,6917.882,95.438,540.635,538.859,0.0
54010.0,STARLINK-5127,PAYLOAD,2024-01-23 10:51:17,15.08853332,0.0001801,53.2175,88.3605,66.0702,294.0478,-2.1728e-05,-6.34e-06,0.0,0 STARLINK-5127,1 54010U 22125AY  24023.45229116 -.00000634  00000-0 -21728-4 0  9992,2 54010  53.2175  88.3605 0001801  66.0702 294.0478 15.08853332 72423,6917.84,95.437,540.951,538.459,0.0
54010.0,STARLINK-5127,PAYLOAD,2024-01-24 09:06:42,15.08837983,0.0002001,53.2184,84.1963,123.5941,236.5242,-1.085e-05,-4.61e-06,0.0,0 STARLINK-5127,1 54010U 22125AY  24024.37965684 -.00000461  00000-0 -10850-4 0  9993,2 54010  53.2184  84.1963 0002001 123.5941 236.5242 15.08837983 72616,6917.887,95.438,541.136,538.367,0.0
54010.0,STARLINK-5127,PAYLOAD,2024-01-25 10:32:52,15.08843119,0.0001805,53.2186,79.4406,103.7801,256.3393,5.274e-05,5.51e-06,0.0,0 STARLINK-5127,1 54010U 22125AY  24025.43949675  .00000551  00000-0  52740-4 0  9995,2 54010  53.2186  79.4406 0001805 103.7801 256.3393 15.08843119 72775,6917.871,95.437,540.985,538.487,0.0
